[{"OBJECT_NAME":"GAOFEN-7","OBJECT_ID":"2019-072A","EPOCH":"2026-03-09T22:50:27.042432","MEAN_MOTION":15.21321455,"ECCENTRICITY":0.00158441,"INCLINATION":97.254,"RA_OF_ASC_NODE":134.0948,"ARG_OF_PERICENTER":29.3011,"MEAN_ANOMALY":330.911,"EPHEMERIS_TYPE":0,"CLASSIFICATION_TYPE":"U","NORAD_CAT_ID":44703,"ELEMENT_SET_NO":999,"REV_AT_EPOCH":35255,"BSTAR":0.00025549913,"MEAN_MOTION_DOT":5.671e-5,"MEAN_MOTION_DDOT":0},{"OBJECT_NAME":"YAOGAN-35 05C","OBJECT_ID":"2022-109D","EPOCH":"2026-03-09T23:24:49.254048","MEAN_MOTION":15.2196891,"ECCENTRICITY":0.00028309,"INCLINATION":34.9905,"RA_OF_ASC_NODE":260.7893,"ARG_OF_PERICENTER":75.4847,"MEAN_ANOMALY":284.6181,"EPHEMERIS_TYPE":0,"CLASSIFICATION_TYPE":"U","NORAD_CAT_ID":53763,"ELEMENT_SET_NO":999,"REV_AT_EPOCH":19524,"BSTAR":0.00045958493,"MEAN_MOTION_DOT":0.00010718,"MEAN_MOTION_DDOT":0}]
